[{"norad_id":"25883","company":"GLOBALSTAR","tle_line2":"2 25883  52.0051  46.1800 0002093  73.6332  21.0664 11.10168853113602","launch_date":"1999-08-17","type":"LEO","tle_line1":"1 25883U 99043A   25156.85970279 -.00000053  00000+0  41380-3 0  9994","satellite_name":"GLOBALSTAR M024"},{"norad_id":"25884","company":"GLOBALSTAR","tle_line2":"2 25884  52.0182 123.7275 0021796 333.4864  26.4813 11.04372429139998","launch_date":"1999-08-17","type":"LEO","tle_line1":"1 25884U 99043B   25156.91041504 -.00000047  00000+0  62992-3 0  9997","satellite_name":"GLOBALSTAR M027"},{"norad_id":"25885","company":"GLOBALSTAR","tle_line2":"2 25885  52.0136 253.8271 0006346 154.8927 220.4035 11.39220691118055","launch_date":"1999-08-17","type":"LEO","tle_line1":"1 25885U 99043C   25156.53352113  .00000050  00000+0  30903-2 0  9996","satellite_name":"GLOBALSTAR M054"},{"norad_id":"25886","company":"GLOBALSTAR","tle_line2":"2 25886  51.9953 200.4714 0002823  63.8677 310.3734 11.27665620118123","launch_date":"1999-08-17","type":"LEO","tle_line1":"1 25886U 99043D   25156.44903323 -.00000054  00000+0  42249-3 0  9994","satellite_name":"GLOBALSTAR M053"},{"norad_id":"25907","company":"GLOBALSTAR","tle_line2":"2 25907  51.9908 139.9417 0001930 250.0345 110.0282 11.93200244540169","launch_date":"1999-09-22","type":"LEO","tle_line1":"1 25907U 99049A   25156.66483890 -.00000056  00000+0  38314-3 0  9990","satellite_name":"GLOBALSTAR M058"},{"norad_id":"25908","company":"GLOBALSTAR","tle_line2":"2 25908  51.9959 146.4872 0009277   9.1065 139.1920 12.07455002151617","launch_date":"1999-09-22","type":"LEO","tle_line1":"1 25908U 99049B   25157.39017868  .00000029  00000+0  13212-2 0  9998","satellite_name":"GLOBALSTAR M050"},{"norad_id":"25909","company":"GLOBALSTAR","tle_line2":"2 25909  51.9935  21.4148 0012863 237.9502 122.0096 12.20293095167048","launch_date":"1999-09-22","type":"LEO","tle_line1":"1 25909U 99049C   25156.55509248 -.00000118  00000+0 -24963-3 0  9991","satellite_name":"GLOBALSTAR M033"},{"norad_id":"25910","company":"GLOBALSTAR","tle_line2":"2 25910  52.0040  33.2106 0007661 103.6527 256.5178 12.29428237166837","launch_date":"1999-09-22","type":"LEO","tle_line1":"1 25910U 99049D   25156.38703404 -.00000081  00000+0  11279-3 0  9998","satellite_name":"GLOBALSTAR M055"}]